start=new Date('2021-10-26T00:00:00.000Z').valueOf();
sats=[{"MEAN_MOTION":"15.06403257","PERIOD":"95.592","ECCENTRICITY":"0.00033920","REV_AT_EPOCH":"5729","GP_ID":"188150251","BSTAR":"0.00003765200000","INCLINATION":"53.0553","TLE_LINE1":"1 46694U 20073AA  21298.40435067  .00000279  00000-0  37652-4 0  9997","NORAD_CAT_ID":"46694","OBJECT_TYPE":"PAYLOAD","MEAN_ANOMALY":"166.7470","REF_FRAME":"TEME","PERIAPSIS":"544.855","CLASSIFICATION_TYPE":"U","TIME_SYSTEM":"UTC","LAUNCH_DATE":"2020-10-18","MEAN_MOTION_DDOT":"0.0000000000000","CENTER_NAME":"EARTH","OBJECT_ID":"2020-073AA","RA_OF_ASC_NODE":"187.6315","EPOCH":"2021-10-25T09:42:15.897888","RCS_SIZE":"LARGE","MEAN_MOTION_DOT":"0.00000279","MEAN_ELEMENT_THEORY":"SGP4","ARG_OF_PERICENTER":"193.3430","ELEMENT_SET_NO":"999","SITE":"AFETR","DECAY_DATE":null,"EPHEMERIS_TYPE":"0","APOAPSIS":"549.553","FILE":"3183657","TLE_LINE2":"2 46694  53.0553 187.6315 0003392 193.3430 166.7470 15.06403257 57290","COUNTRY_CODE":"US","OBJECT_NAME":"STARLINK-1793","SEMIMAJOR_AXIS":"6925.339"},{"ELEMENT_SET_NO":"999","ARG_OF_PERICENTER":"76.9672","RCS_SIZE":"LARGE","MEAN_MOTION_DOT":"0.00001555","MEAN_ELEMENT_THEORY":"SGP4","APOAPSIS":"548.357","EPHEMERIS_TYPE":"0","DECAY_DATE":null,"SITE":"AFETR","OBJECT_NAME":"STARLINK-1795","SEMIMAJOR_AXIS":"6925.354","TLE_LINE2":"2 46696  53.0549 189.0174 0001644  76.9672 283.1501 15.06398350 56765","COUNTRY_CODE":"US","FILE":"3183453","GP_ID":"188144219","BSTAR":"0.00012326000000","REV_AT_EPOCH":"5676","ECCENTRICITY":"0.00016440","PERIOD":"95.592","MEAN_MOTION":"15.06398350","CLASSIFICATION_TYPE":"U","TIME_SYSTEM":"UTC","LAUNCH_DATE":"2020-10-18","MEAN_MOTION_DDOT":"0.0000000000000","REF_FRAME":"TEME","PERIAPSIS":"546.080","OBJECT_TYPE":"PAYLOAD","NORAD_CAT_ID":"46696","MEAN_ANOMALY":"283.1501","INCLINATION":"53.0549","TLE_LINE1":"1 46696U 20073AC  21298.09105938  .00001555  00000-0  12326-3 0  9993","RA_OF_ASC_NODE":"189.0174","OBJECT_ID":"2020-073AC","CENTER_NAME":"EARTH","EPOCH":"2021-10-25T02:11:07.530432"},{"ELEMENT_SET_NO":"999","RCS_SIZE":"LARGE","MEAN_MOTION_DOT":"0.00000345","MEAN_ELEMENT_THEORY":"SGP4","ARG_OF_PERICENTER":"75.3579","TLE_LINE2":"2 46698  53.0537 206.9896 0001895  75.3579 284.7620 15.06399609 57017","COUNTRY_CODE":"US","OBJECT_NAME":"STARLINK-1797","SEMIMAJOR_AXIS":"6925.350","FILE":"3183768","EPHEMERIS_TYPE":"0","APOAPSIS":"548.527","SITE":"AFETR","DECAY_DATE":null,"REF_FRAME":"TEME","PERIAPSIS":"545.902","CLASSIFICATION_TYPE":"U","LAUNCH_DATE":"2020-10-18","TIME_SYSTEM":"UTC","MEAN_MOTION_DDOT":"0.0000000000000","INCLINATION":"53.0537","TLE_LINE1":"1 46698U 20073AE  21298.54626268  .00000345  00000-0  42093-4 0  9990","MEAN_ANOMALY":"284.7620","OBJECT_TYPE":"PAYLOAD","NORAD_CAT_ID":"46698","REV_AT_EPOCH":"5701","GP_ID":"188152358","BSTAR":"0.00004209300000","PERIOD":"95.592","MEAN_MOTION":"15.06399609","ECCENTRICITY":"0.00018950","EPOCH":"2021-10-25T13:06:37.095552","OBJECT_ID":"2020-073AE","RA_OF_ASC_NODE":"206.9896","CENTER_NAME":"EARTH"},{"RA_OF_ASC_NODE":"207.2679","OBJECT_ID":"2020-073AF","CENTER_NAME":"EARTH","EPOCH":"2021-10-25T11:36:21.935808","GP_ID":"188150241","BSTAR":"0.00017261000000","REV_AT_EPOCH":"5698","ECCENTRICITY":"0.00015190","MEAN_MOTION":"15.06404932","PERIOD":"95.592","CLASSIFICATION_TYPE":"U","LAUNCH_DATE":"2020-10-18","TIME_SYSTEM":"UTC","MEAN_MOTION_DDOT":"0.0000000000000","REF_FRAME":"TEME","PERIAPSIS":"546.146","OBJECT_TYPE":"PAYLOAD","NORAD_CAT_ID":"46699","MEAN_ANOMALY":"287.2280","INCLINATION":"53.0557","TLE_LINE1":"1 46699U 20073AF  21298.48358722  .00002291  00000-0  17261-3 0  9991","EPHEMERIS_TYPE":"0","APOAPSIS":"548.250","DECAY_DATE":null,"SITE":"AFETR","OBJECT_NAME":"STARLINK-1799","SEMIMAJOR_AXIS":"6925.333","TLE_LINE2":"2 46699  53.0557 207.2679 0001519  72.8876 287.2280 15.06404932 56989","COUNTRY_CODE":"US","FILE":"3183656","ELEMENT_SET_NO":"999","ARG_OF_PERICENTER":"72.8876","RCS_SIZE":"LARGE","MEAN_ELEMENT_THEORY":"SGP4","MEAN_MOTION_DOT":"0.00002291"},{"ARG_OF_PERICENTER":"70.6764","MEAN_MOTION_DOT":"0.00000360","RCS_SIZE":"LARGE","MEAN_ELEMENT_THEORY":"SGP4","ELEMENT_SET_NO":"999","DECAY_DATE":null,"SITE":"AFETR","EPHEMERIS_TYPE":"0","APOAPSIS":"548.472","FILE":"3183314","SEMIMAJOR_AXIS":"6925.325","OBJECT_NAME":"STARLINK-1800","COUNTRY_CODE":"US","TLE_LINE2":"2 46700  53.0524 224.3390 0001851  70.6764 289.4424 15.06407668 56733","ECCENTRICITY":"0.00018510","MEAN_MOTION":"15.06407668","PERIOD":"95.592","BSTAR":"0.00004306200000","GP_ID":"188119396","REV_AT_EPOCH":"5673","OBJECT_TYPE":"PAYLOAD","MEAN_ANOMALY":"289.4424","NORAD_CAT_ID":"46700","TLE_LINE1":"1 46700U 20073AG  21298.02331076  .00000360  00000-0  43062-4 0  9991","INCLINATION":"53.0524","MEAN_MOTION_DDOT":"0.0000000000000","LAUNCH_DATE":"2020-10-18","TIME_SYSTEM":"UTC","CLASSIFICATION_TYPE":"U","PERIAPSIS":"545.908","REF_FRAME":"TEME","CENTER_NAME":"EARTH","RA_OF_ASC_NODE":"224.3390","OBJECT_ID":"2020-073AG","EPOCH":"2021-10-25T00:33:34.049664"},{"OBJECT_ID":"2020-073AH","RA_OF_ASC_NODE":"208.5833","CENTER_NAME":"EARTH","EPOCH":"2021-10-25T04:31:46.094016","REV_AT_EPOCH":"5650","BSTAR":"0.00014938000000","GP_ID":"188144719","PERIOD":"95.592","MEAN_MOTION":"15.06404950","ECCENTRICITY":"0.00018370","PERIAPSIS":"545.926","REF_FRAME":"TEME","TIME_SYSTEM":"UTC","LAUNCH_DATE":"2020-10-18","MEAN_MOTION_DDOT":"0.0000000000000","CLASSIFICATION_TYPE":"U","TLE_LINE1":"1 46701U 20073AH  21298.18872794  .00001944  00000-0  14938-3 0  9994","INCLINATION":"53.0534","OBJECT_TYPE":"PAYLOAD","NORAD_CAT_ID":"46701","MEAN_ANOMALY":"288.3665","APOAPSIS":"548.471","EPHEMERIS_TYPE":"0","SITE":"AFETR","DECAY_DATE":null,"COUNTRY_CODE":"US","TLE_LINE2":"2 46701  53.0534 208.5833 0001837  71.7524 288.3665 15.06404950 56502","SEMIMAJOR_AXIS":"6925.333","OBJECT_NAME":"STARLINK-1801","FILE":"3183453","ELEMENT_SET_NO":"999","MEAN_MOTION_DOT":"0.00001944","RCS_SIZE":"LARGE","MEAN_ELEMENT_THEORY":"SGP4","ARG_OF_PERICENTER":"71.7524"},{"SITE":"AFETR","DECAY_DATE":null,"EPHEMERIS_TYPE":"0","APOAPSIS":"548.412","FILE":"3183453","COUNTRY_CODE":"US","TLE_LINE2":"2 46702  53.0562 188.8381 0001711 130.3699 229.7440 15.06395609 56777","SEMIMAJOR_AXIS":"6925.362","OBJECT_NAME":"STARLINK-1802","RCS_SIZE":"LARGE","MEAN_MOTION_DOT":"-0.00000380","MEAN_ELEMENT_THEORY":"SGP4","ARG_OF_PERICENTER":"130.3699","ELEMENT_SET_NO":"999","CENTER_NAME":"EARTH","OBJECT_ID":"2020-073AJ","RA_OF_ASC_NODE":"188.8381","EPOCH":"2021-10-25T03:14:48.523776","MEAN_MOTION":"15.06395609","PERIOD":"95.592","ECCENTRICITY":"0.00017110","REV_AT_EPOCH":"5677","BSTAR":"-0.00000661930000","GP_ID":"188144470","TLE_LINE1":"1 46702U 20073AJ  21298.13528384 -.00000380  00000-0 -66193-5 0  9990","INCLINATION":"53.0562","NORAD_CAT_ID":"46702","OBJECT_TYPE":"PAYLOAD","MEAN_ANOMALY":"229.7440","PERIAPSIS":"546.042","REF_FRAME":"TEME","LAUNCH_DATE":"2020-10-18","MEAN_MOTION_DDOT":"0.0000000000000","TIME_SYSTEM":"UTC","CLASSIFICATION_TYPE":"U"},{"ELEMENT_SET_NO":"999","MEAN_MOTION_DOT":"0.00000283","RCS_SIZE":"LARGE","MEAN_ELEMENT_THEORY":"SGP4","ARG_OF_PERICENTER":"72.7229","APOAPSIS":"548.405","EPHEMERIS_TYPE":"0","SITE":"AFETR","DECAY_DATE":null,"COUNTRY_CODE":"US","TLE_LINE2":"2 46703  53.0537 208.6953 0001717  72.7229 287.3947 15.06399090 56499","SEMIMAJOR_AXIS":"6925.351","OBJECT_NAME":"STARLINK-1803","FILE":"3183453","REV_AT_EPOCH":"5649","BSTAR":"0.00003791100000","GP_ID":"188143218","MEAN_MOTION":"15.06399090","PERIOD":"95.592","ECCENTRICITY":"0.00017170","PERIAPSIS":"546.027","REF_FRAME":"TEME","LAUNCH_DATE":"2020-10-18","TIME_SYSTEM":"UTC","MEAN_MOTION_DDOT":"0.0000000000000","CLASSIFICATION_TYPE":"U","TLE_LINE1":"1 46703U 20073AK  21298.16660940  .00000283  00000-0  37911-4 0  9994","INCLINATION":"53.0537","OBJECT_TYPE":"PAYLOAD","MEAN_ANOMALY":"287.3947","NORAD_CAT_ID":"46703","RA_OF_ASC_NODE":"208.6953","OBJECT_ID":"2020-073AK","CENTER_NAME":"EARTH","EPOCH":"2021-10-25T03:59:55.052160"},{"EPOCH":"2021-10-25T03:30:43.603200","OBJECT_ID":"2020-073AL","RA_OF_ASC_NODE":"188.7672","CENTER_NAME":"EARTH","REF_FRAME":"TEME","PERIAPSIS":"545.870","CLASSIFICATION_TYPE":"U","LAUNCH_DATE":"2020-10-18","MEAN_MOTION_DDOT":"0.0000000000000","TIME_SYSTEM":"UTC","INCLINATION":"53.0560","TLE_LINE1":"1 46704U 20073AL  21298.14633800  .00000423  00000-0  47317-4 0  9995","OBJECT_TYPE":"PAYLOAD","MEAN_ANOMALY":"195.9516","NORAD_CAT_ID":"46704","REV_AT_EPOCH":"5677","GP_ID":"188143468","BSTAR":"0.00004731700000","MEAN_MOTION":"15.06398672","PERIOD":"95.592","ECCENTRICITY":"0.00019460","TLE_LINE2":"2 46704  53.0560 188.7672 0001946 164.1535 195.9516 15.06398672 56774","COUNTRY_CODE":"US","OBJECT_NAME":"STARLINK-1804","SEMIMAJOR_AXIS":"6925.353","FILE":"3183453","APOAPSIS":"548.565","EPHEMERIS_TYPE":"0","SITE":"AFETR","DECAY_DATE":null,"ELEMENT_SET_NO":"999","MEAN_ELEMENT_THEORY":"SGP4","RCS_SIZE":"LARGE","MEAN_MOTION_DOT":"0.00000423","ARG_OF_PERICENTER":"164.1535"},{"ARG_OF_PERICENTER":"69.1674","MEAN_MOTION_DOT":"-0.00000369","RCS_SIZE":"LARGE","MEAN_ELEMENT_THEORY":"SGP4","ELEMENT_SET_NO":"999","FILE":"3183453","OBJECT_NAME":"STARLINK-1805","SEMIMAJOR_AXIS":"6925.351","TLE_LINE2":"2 46705  53.0542 223.4163 0001694  69.1674 290.9497 15.06399120 56295","COUNTRY_CODE":"US","DECAY_DATE":null,"SITE":"AFETR","EPHEMERIS_TYPE":"0","APOAPSIS":"548.389","NORAD_CAT_ID":"46705","OBJECT_TYPE":"PAYLOAD","MEAN_ANOMALY":"290.9497","INCLINATION":"53.0542","TLE_LINE1":"1 46705U 20073AM  21298.22604286 -.00000369  00000-0 -58538-5 0  9990","CLASSIFICATION_TYPE":"U","TIME_SYSTEM":"UTC","LAUNCH_DATE":"2020-10-18","MEAN_MOTION_DDOT":"0.0000000000000","REF_FRAME":"TEME","PERIAPSIS":"546.043","ECCENTRICITY":"0.00016940","PERIOD":"95.592","MEAN_MOTION":"15.06399120","GP_ID":"188144220","BSTAR":"-0.00000585380000","REV_AT_EPOCH":"5629","EPOCH":"2021-10-25T05:25:30.103104","CENTER_NAME":"EARTH","RA_OF_ASC_NODE":"223.4163","OBJECT_ID":"2020-073AM"}];
